[{"OBJECT_NAME":"STARLINK-31278","OBJECT_ID":"2024-044M","EPOCH":"2026-03-09T12:44:23.591904","MEAN_MOTION":15.27566797,"ECCENTRICITY":0.00019948,"INCLINATION":43.0038,"RA_OF_ASC_NODE":107.7183,"ARG_OF_PERICENTER":287.1664,"MEAN_ANOMALY":72.8969,"EPHEMERIS_TYPE":0,"CLASSIFICATION_TYPE":"U","NORAD_CAT_ID":59163,"ELEMENT_SET_NO":999,"REV_AT_EPOCH":11354,"BSTAR":5.1076473e-5,"MEAN_MOTION_DOT":1.143e-5,"MEAN_MOTION_DDOT":0},{"OBJECT_NAME":"KUIPER-00226","OBJECT_ID":"2026-030X","EPOCH":"2026-03-09T15:01:51.726432","MEAN_MOTION":15.30655594,"ECCENTRICITY":0.0017713,"INCLINATION":51.8814,"RA_OF_ASC_NODE":220.1252,"ARG_OF_PERICENTER":64.2781,"MEAN_ANOMALY":296.003,"EPHEMERIS_TYPE":0,"CLASSIFICATION_TYPE":"U","NORAD_CAT_ID":67785,"ELEMENT_SET_NO":999,"REV_AT_EPOCH":507,"BSTAR":0.001553,"MEAN_MOTION_DOT":0.00046834,"MEAN_MOTION_DDOT":0}]
